NORAD_CAT_ID,OBJECT_NAME,OBJECT_TYPE,EPOCH,MEAN_MOTION,ECCENTRICITY,INCLINATION,RA_OF_ASC_NODE,ARG_OF_PERICENTER,MEAN_ANOMALY,BSTAR,MEAN_MOTION_DOT,MEAN_MOTION_DDOT,TLE_LINE0,TLE_LINE1,TLE_LINE2,SEMIMAJOR_AXIS,PERIOD,APOGEE,PERIGEE,DECAYED
55766.0,STARLINK-5599,PAYLOAD,2024-06-18 19:40:29,14.98334264,0.0003176,70.0002,10.0957,268.6103,91.4692,8.9676e-05,9.77e-06,0.0,0 STARLINK-5599,1 55766U 23028AB  24170.81978979  .00000977  00000-0  89676-4 0  9999,2 55766  70.0002  10.0957 0003176 268.6103  91.4692 14.98334264 72324,6950.18,96.107,574.252,569.837,0.0
55766.0,STARLINK-5599,PAYLOAD,2024-06-18 21:16:37,14.98334047,0.0003096,70.0002,9.9273,269.5085,90.5719,9.3834e-05,1.027e-05,0.0,0 STARLINK-5599,1 55766U 23028AB  24170.88654989  .00001027  00000-0  93834-4 0  9996,2 55766  70.0002   9.9273 0003096 269.5085  90.5719 14.98334047 72343,6950.18,96.107,574.197,569.894,0.0
55766.0,STARLINK-5599,PAYLOAD,2024-06-19 13:17:58,14.98327308,0.0003081,70.0,8.2438,269.324,90.7566,5.8481e-05,6.05e-06,0.0,0 STARLINK-5599,1 55766U 23028AB  24171.55415461  .00000605  00000-0  58481-4 0  9991,2 55766  70.0000   8.2438 0003081 269.3240  90.7566 14.98327308 72435,6950.201,96.107,574.208,569.925,0.0
55766.0,STARLINK-5599,PAYLOAD,2024-06-19 14:54:07,14.98326868,0.0003091,70.0,8.0755,269.2821,90.7984,5.377e-05,5.49e-06,0.0,0 STARLINK-5599,1 55766U 23028AB  24171.62091506  .00000549  00000-0  53770-4 0  9992,2 55766  70.0000   8.0755 0003091 269.2821  90.7984 14.98326868 72456,6950.203,96.107,574.216,569.919,0.0
55766.0,STARLINK-5599,PAYLOAD,2024-06-19 21:18:39,14.98327016,0.0003115,70.0,7.4021,269.4857,90.5945,3.0006e-05,2.65e-06,0.0,0 STARLINK-5599,1 55766U 23028AB  24171.88795577  .00000265  00000-0  30006-4 0  9991,2 55766  70.0000   7.4021 0003115 269.4857  90.5945 14.98327016 72498,6950.202,96.107,574.232,569.902,0.0
55766.0,STARLINK-5599,PAYLOAD,2024-06-20 14:56:07,14.98333411,0.0003143,69.9999,5.5497,269.8338,90.2461,4.16e-05,4.03e-06,0.0,0 STARLINK-5599,1 55766U 23028AB  24172.62231167  .00000403  00000-0  41600-4 0  9990,2 55766  69.9999   5.5497 0003143 269.8338  90.2461 14.98333411 72606,6950.182,96.107,574.232,569.863,0.0
55766.0,STARLINK-5599,PAYLOAD,2024-06-20 21:20:39,14.98335625,0.0003156,70.0,4.8764,269.8763,90.2034,3.4086e-05,3.14e-06,0.0,0 STARLINK-5599,1 55766U 23028AB  24172.88934981  .00000314  00000-0  34086-4 0  9993,2 55766  70.0000   4.8764 0003156 269.8763  90.2034 14.98335625 72646,6950.175,96.107,574.234,569.847,0.0
55766.0,STARLINK-5599,PAYLOAD,2024-06-20 22:56:47,14.9833624,0.0003156,70.0,4.708,269.9201,90.1597,4.0256e-05,3.87e-06,0.0,0 STARLINK-5599,1 55766U 23028AB  24172.95610905  .00000387  00000-0  40256-4 0  9994,2 55766  70.0000   4.7080 0003156 269.9201  90.1597 14.98336240 72641,6950.174,96.107,574.232,569.845,0.0
55766.0,STARLINK-5599,PAYLOAD,2024-06-21 13:22:00,14.98330951,0.0003128,70.0001,3.1934,271.5946,88.4855,9.2714e-05,1.013e-05,0.0,0 STARLINK-5599,1 55766U 23028AB  24173.55695091  .00001013  00000-0  92714-4 0  9993,2 55766  70.0001   3.1934 0003128 271.5946  88.4855 14.98330951 72748,6950.19,96.107,574.229,569.881,0.0
55766.0,STARLINK-5599,PAYLOAD,2024-06-21 21:22:40,14.98332536,0.0003126,70.0002,2.3517,271.6657,88.4144,0.00010304,1.137e-05,0.0,0 STARLINK-5599,1 55766U 23028AB  24173.89074950  .00001137  00000-0  10304-3 0  9996,2 55766  70.0002   2.3517 0003126 271.6657  88.4144 14.98332536 72792,6950.185,96.107,574.223,569.877,0.0
55766.0,STARLINK-5599,PAYLOAD,2024-06-21 22:58:48,14.98332981,0.0003125,70.0002,2.1834,271.6927,88.3874,0.00010647,1.178e-05,0.0,0 STARLINK-5599,1 55766U 23028AB  24173.95750909  .00001178  00000-0  10647-3 0  9993,2 55766  70.0002   2.1834 0003125 271.6927  88.3874 14.98332981 72794,6950.184,96.107,574.221,569.877,0.0
55766.0,STARLINK-5599,PAYLOAD,2024-06-22 13:24:01,14.98331625,0.0003055,70.0004,0.6687,271.9227,88.1583,1.0108e-05,2.8e-07,0.0,0 STARLINK-5599,1 55766U 23028AB  24174.55835228  .00000028  00000-0  10108-4 0  9994,2 55766  70.0004   0.6687 0003055 271.9227  88.1583 14.98331625 72893,6950.188,96.107,574.176,569.93,0.0
55766.0,STARLINK-5599,PAYLOAD,2024-06-22 21:24:41,14.98330819,0.0003013,70.0006,359.828,268.049,92.0324,1.2465e-05,5.6e-07,0.0,0 STARLINK-5599,1 55766U 23028AB  24174.89215198  .00000056  00000-0  12465-4 0  9998,2 55766  70.0006 359.8280 0003013 268.0490  92.0324 14.98330819 72943,6950.19,96.107,574.149,569.961,0.0
55766.0,STARLINK-5599,PAYLOAD,2024-06-22 23:00:49,14.98330858,0.0003016,70.0006,359.6596,268.1626,91.9188,1.1891e-05,4.9e-07,0.0,0 STARLINK-5599,1 55766U 23028AB  24174.95891191  .00000049  00000-0  11891-4 0  9992,2 55766  70.0006 359.6596 0003016 268.1626  91.9188 14.98330858 72945,6950.19,96.107,574.151,569.959,0.0
55766.0,STARLINK-5599,PAYLOAD,2024-06-23 13:26:02,14.98330746,0.0002965,70.0007,358.1445,264.8665,95.2156,1.9138e-05,1.35e-06,0.0,0 STARLINK-5599,1 55766U 23028AB  24175.55975126  .00000135  00000-0  19138-4 0  9998,2 55766  70.0007 358.1445 0002965 264.8665  95.2156 14.98330746 73041,6950.191,96.107,574.116,569.995,0.0
55766.0,STARLINK-5599,PAYLOAD,2024-06-23 21:26:42,14.98330938,0.0002978,70.0007,357.3028,263.9882,96.0937,1.8597e-05,1.29e-06,0.0,0 STARLINK-5599,1 55766U 23028AB  24175.89355092  .00000129  00000-0  18597-4 0  9990,2 55766  70.0007 357.3028 0002978 263.9882  96.0937 14.98330938 73098,6950.19,96.107,574.125,569.985,0.0
55766.0,STARLINK-5599,PAYLOAD,2024-06-23 23:02:50,14.9833118,0.0002974,70.0007,357.1344,263.2054,96.8767,2.0938e-05,1.57e-06,0.0,0 STARLINK-5599,1 55766U 23028AB  24175.96031063  .00000157  00000-0  20938-4 0  9990,2 55766  70.0007 357.1344 0002974 263.2054  96.8767 14.98331180 73096,6950.189,96.107,574.121,569.987,0.0
55766.0,STARLINK-5599,PAYLOAD,2024-06-24 15:04:11,14.98331363,0.0003093,70.0004,355.4508,266.8518,93.2287,6.1256e-05,6.38e-06,0.0,0 STARLINK-5599,1 55766U 23028AB  24176.62790880  .00000638  00000-0  61256-4 0  9995,2 55766  70.0004 355.4508 0003093 266.8518  93.2287 14.98331363 73207,6950.189,96.107,574.203,569.904,0.0
55766.0,STARLINK-5599,PAYLOAD,2024-06-24 21:28:43,14.98333418,0.0003083,70.0005,354.7776,266.5223,93.5583,8.0584e-05,8.69e-06,0.0,0 STARLINK-5599,1 55766U 23028AB  24176.89494673  .00000869  00000-0  80584-4 0  9996,2 55766  70.0005 354.7776 0003083 266.5223  93.5583 14.98333418 73245,6950.182,96.107,574.19,569.905,0.0
55766.0,STARLINK-5599,PAYLOAD,2024-06-25 13:30:04,14.98330471,0.000308,70.0005,353.0941,267.0467,93.034,3.9092e-05,3.73e-06,0.0,0 STARLINK-5599,1 55766U 23028AB  24177.56254921  .00000373  00000-0  39092-4 0  9999,2 55766  70.0005 353.0941 0003080 267.0467  93.0340 14.98330471 73336,6950.191,96.107,574.197,569.916,0.0
55766.0,STARLINK-5599,PAYLOAD,2024-06-25 21:30:44,14.98331805,0.0003059,70.0007,352.2528,266.692,93.3889,5.0821e-05,5.13e-06,0.0,0 STARLINK-5599,1 55766U 23028AB  24177.89634780  .00000513  00000-0  50821-4 0  9999,2 55766  70.0007 352.2528 0003059 266.6920  93.3889 14.98331805 73394,6950.187,96.107,574.178,569.926,0.0
55766.0,STARLINK-5599,PAYLOAD,2024-06-26 11:55:57,14.98329544,0.000288,70.0012,350.7387,263.7618,96.3212,1.892e-05,1.33e-06,0.0,0 STARLINK-5599,1 55766U 23028AB  24178.49718995  .00000133  00000-0  18920-4 0  9999,2 55766  70.0012 350.7387 0002880 263.7618  96.3212 14.98329544 73489,6950.194,96.107,574.061,570.058,0.0
55766.0,STARLINK-5599,PAYLOAD,2024-06-27 11:57:57,14.98332144,0.0002965,70.0011,348.214,269.0177,91.0642,6.3436e-05,6.64e-06,0.0,0 STARLINK-5599,1 55766U 23028AB  24179.49858763  .00000664  00000-0  63436-4 0  9999,2 55766  70.0011 348.2140 0002965 269.0177  91.0642 14.98332144 73625,6950.186,96.107,574.112,569.991,0.0
55766.0,STARLINK-5599,PAYLOAD,2024-06-27 21:34:46,14.98334487,0.0003025,70.0008,347.2023,270.5411,89.5401,8.5813e-05,9.31e-06,0.0,0 STARLINK-5599,1 55766U 23028AB  24179.89914515  .00000931  00000-0  85813-4 0  9991,2 55766  70.0008 347.2023 0003025 270.5411  89.5401 14.98334487 73690,6950.179,96.107,574.146,569.942,0.0
55766.0,STARLINK-5599,PAYLOAD,2024-06-28 11:59:58,14.98333123,0.0003074,70.0005,345.6872,269.6301,90.4505,8.2795e-05,8.95e-06,0.0,0 STARLINK-5599,1 55766U 23028AB  24180.49998602  .00000895  00000-0  82795-4 0  9993,2 55766  70.0005 345.6872 0003074 269.6301  90.4505 14.98333123 73773,6950.183,96.107,574.185,569.912,0.0
55766.0,STARLINK-5599,PAYLOAD,2024-06-28 13:36:06,14.98333324,0.0003077,70.0006,345.5188,269.5521,90.5286,8.3776e-05,9.07e-06,0.0,0 STARLINK-5599,1 55766U 23028AB  24180.56674577  .00000907  00000-0  83776-4 0  9997,2 55766  70.0006 345.5188 0003077 269.5521  90.5286 14.98333324 73791,6950.183,96.107,574.186,569.909,0.0
55766.0,STARLINK-5599,PAYLOAD,2024-06-28 20:00:38,14.98339746,0.0002934,70.0007,344.846,267.6541,92.4282,0.00014757,1.669e-05,0.0,0 STARLINK-5599,1 55766U 23028AB  24180.83377944  .00001669  00000-0  14757-3 0  9993,2 55766  70.0007 344.8460 0002934 267.6541  92.4282 14.98339746 73824,6950.163,96.106,574.067,569.989,0.0
55766.0,STARLINK-5599,PAYLOAD,2024-06-29 12:01:59,14.98328511,0.0002555,70.0027,343.1659,258.2247,101.8626,4.9863e-05,5.02e-06,0.0,0 STARLINK-5599,1 55766U 23028AB  24181.50138839  .00000502  00000-0  49863-4 0  9998,2 55766  70.0027 343.1659 0002555 258.2247 101.8626 14.98328511 73922,6950.197,96.107,573.838,570.287,0.0
55766.0,STARLINK-5599,PAYLOAD,2024-06-29 13:38:08,14.98321363,0.0002971,70.0007,342.9944,266.2864,93.7955,-8.8495e-05,-1.148e-05,0.0,0 STARLINK-5599,1 55766U 23028AB  24181.56815617 -.00001148  00000-0 -88495-4 0  9993,2 55766  70.0007 342.9944 0002971 266.2864  93.7955 14.98321363 73944,6950.22,96.108,574.15,570.02,0.0
55766.0,STARLINK-5599,PAYLOAD,2024-06-29 20:02:40,14.98322456,0.0002613,70.0016,342.3228,263.1318,96.9544,-6.4333e-05,-8.6e-06,0.0,0 STARLINK-5599,1 55766U 23028AB  24181.83519610 -.00000860  00000-0 -64333-4 0  9992,2 55766  70.0016 342.3228 0002613 263.1318  96.9544 14.98322456 73972,6950.216,96.107,573.897,570.265,0.0
